{
    "links": {
        "self": "http://www.neowsapp.com/rest/v1/neo/54091639?api_key=iIulBulltgU6a56xZRHN4H3l9WmuAYTsLGpBGhQ2"
    },
    "id": "54091639",
    "neo_reference_id": "54091639",
    "name": "(2020 WX1)",
    "designation": "2020 WX1",
    "nasa_jpl_url": "http://ssd.jpl.nasa.gov/sbdb.cgi?sstr=54091639",
    "absolute_magnitude_h": 21.262,
    "estimated_diameter": {
        "kilometers": {
            "estimated_diameter_min": 0.1486465988,
            "estimated_diameter_max": 0.3323838996
        },
        "meters": {
            "estimated_diameter_min": 148.6465988323,
            "estimated_diameter_max": 332.3838996131
        },
        "miles": {
            "estimated_diameter_min": 0.0923646858,
            "estimated_diameter_max": 0.2065337161
        },
        "feet": {
            "estimated_diameter_min": 487.6857073129,
            "estimated_diameter_max": 1090.4983932066
        }
    },
    "is_potentially_hazardous_asteroid": false,
    "close_approach_data": [
        {
            "close_approach_date": "2020-11-25",
            "close_approach_date_full": "2020-Nov-25 01:59",
            "epoch_date_close_approach": 1606269540000,
            "relative_velocity": {
                "kilometers_per_second": "34.0325153315",
                "kilometers_per_hour": "122517.0551932668",
                "miles_per_hour": "76127.3335449496"
            },
            "miss_distance": {
                "astronomical": "0.1864724182",
                "lunar": "72.5377706798",
                "kilometers": "27895876.576469234",
                "miles": "17333693.9305500692"
            },
            "orbiting_body": "Earth"
        }
    ],
    "orbital_data": {
        "orbit_id": "2",
        "orbit_determination_date": "2020-11-22 05:20:05",
        "first_observation_date": "2020-11-14",
        "last_observation_date": "2020-11-22",
        "data_arc_in_days": 8,
        "observations_used": 32,
        "orbit_uncertainty": "9",
        "minimum_orbit_intersection": ".070568",
        "jupiter_tisserand_invariant": "2.565",
        "epoch_osculation": "2459169.5",
        "eccentricity": ".8475144491288178",
        "semi_major_axis": "2.850318675784544",
        "inclination": "19.64455277227142",
        "ascending_node_longitude": "83.83953992979347",
        "orbital_period": "1757.674914220133",
        "perihelion_distance": ".4346324134354247",
        "perihelion_argument": "88.18608382055046",
        "aphelion_distance": "5.266004938133662",
        "perihelion_time": "2459217.524540083830",
        "mean_anomaly": "350.1638043017473",
        "mean_motion": ".2048160311599652",
        "equinox": "J2000",
        "orbit_class": {
            "orbit_class_type": "APO",
            "orbit_class_description": "Near-Earth asteroid orbits which cross the Earth’s orbit similar to that of 1862 Apollo",
            "orbit_class_range": "a (semi-major axis) > 1.0 AU; q (perihelion) < 1.017 AU"
        }
    },
    "is_sentry_object": false
}